{
    "links": {
        "self": "http://www.neowsapp.com/rest/v1/neo/3826620?api_key=iIulBulltgU6a56xZRHN4H3l9WmuAYTsLGpBGhQ2"
    },
    "id": "3826620",
    "neo_reference_id": "3826620",
    "name": "(2018 PT7)",
    "designation": "2018 PT7",
    "nasa_jpl_url": "http://ssd.jpl.nasa.gov/sbdb.cgi?sstr=3826620",
    "absolute_magnitude_h": 23.7,
    "estimated_diameter": {
        "kilometers": {
            "estimated_diameter_min": 0.0483676488,
            "estimated_diameter_max": 0.1081533507
        },
        "meters": {
            "estimated_diameter_min": 48.3676488219,
            "estimated_diameter_max": 108.1533506775
        },
        "miles": {
            "estimated_diameter_min": 0.0300542543,
            "estimated_diameter_max": 0.0672033557
        },
        "feet": {
            "estimated_diameter_min": 158.6865169607,
            "estimated_diameter_max": 354.8338390368
        }
    },
    "is_potentially_hazardous_asteroid": false,
    "close_approach_data": [
        {
            "close_approach_date": "2018-08-12",
            "close_approach_date_full": "2018-Aug-12 05:52",
            "epoch_date_close_approach": 1534053120000,
            "relative_velocity": {
                "kilometers_per_second": "8.2992943834",
                "kilometers_per_hour": "29877.4597801595",
                "miles_per_hour": "18564.6916061775"
            },
            "miss_distance": {
                "astronomical": "0.0675052261",
                "lunar": "26.2595329529",
                "kilometers": "10098638.038428407",
                "miles": "6275002.7013377366"
            },
            "orbiting_body": "Earth"
        },
        {
            "close_approach_date": "2105-07-10",
            "close_approach_date_full": "2105-Jul-10 06:34",
            "epoch_date_close_approach": 4276650840000,
            "relative_velocity": {
                "kilometers_per_second": "20.0695438688",
                "kilometers_per_hour": "72250.3579275097",
                "miles_per_hour": "44893.5626800129"
            },
            "miss_distance": {
                "astronomical": "0.4817203945",
                "lunar": "187.3892334605",
                "kilometers": "72064344.952759715",
                "miles": "44778707.537385467"
            },
            "orbiting_body": "Earth"
        },
        {
            "close_approach_date": "2126-08-17",
            "close_approach_date_full": "2126-Aug-17 17:12",
            "epoch_date_close_approach": 4942660320000,
            "relative_velocity": {
                "kilometers_per_second": "7.8983101526",
                "kilometers_per_hour": "28433.9165494886",
                "miles_per_hour": "17667.7299804308"
            },
            "miss_distance": {
                "astronomical": "0.0744896954",
                "lunar": "28.9764915106",
                "kilometers": "11143499.768788798",
                "miles": "6924249.6746014924"
            },
            "orbiting_body": "Earth"
        }
    ],
    "orbital_data": {
        "orbit_id": "5",
        "orbit_determination_date": "2018-10-16 07:14:59",
        "first_observation_date": "2018-08-05",
        "last_observation_date": "2018-10-15",
        "data_arc_in_days": 71,
        "observations_used": 34,
        "orbit_uncertainty": "7",
        "minimum_orbit_intersection": ".0672582",
        "jupiter_tisserand_invariant": "3.792",
        "epoch_osculation": "2459000.5",
        "eccentricity": ".4476396776125394",
        "semi_major_axis": "1.907392374248817",
        "inclination": "10.63525487264904",
        "ascending_node_longitude": "130.1883089307037",
        "orbital_period": "962.1847954684932",
        "perihelion_distance": "1.05356786675946",
        "perihelion_argument": "208.7474573625909",
        "aphelion_distance": "2.761216881738174",
        "perihelion_time": "2459322.951381300574",
        "mean_anomaly": "239.3552986755672",
        "mean_motion": ".3741485021333287",
        "equinox": "J2000",
        "orbit_class": {
            "orbit_class_type": "AMO",
            "orbit_class_description": "Near-Earth asteroid orbits similar to that of 1221 Amor",
            "orbit_class_range": "1.017 AU < q (perihelion) < 1.3 AU"
        }
    },
    "is_sentry_object": false
}